STARLINK-34192          
1 64014U 25101W   26193.53005790  .00015409  00000+0  56823-3 0  9999
2 64014  43.0004  13.2986 0001085 264.2346  95.8382 15.27583844 66147
STARLINK-34093          
1 64015U 25101X   26193.48765381  .00008902  00000+0  33248-3 0  9999
2 64015  42.9983  12.9780 0000331 198.3382 161.7458 15.27593781 66148
STARLINK-34016          
1 64016U 25101Y   26193.48251505  .00012625  00000+0  46758-3 0  9995
2 64016  43.0041  12.9370 0001755 261.1841  98.8812 15.27575875 66149
STARLINK-34161          
1 64017U 25101Z   26193.49150584  .00009685  00000+0  36080-3 0  9991
2 64017  42.9992  13.0055 0000169 231.5729 128.5108 15.27597608 66146
STARLINK-34162          
1 64018U 25101AA  26193.50435209  .00018035  00000+0  66292-3 0  9991
2 64018  42.9984  13.0952 0001384 204.0618 156.0169 15.27599065 66148
STARLINK-34155          
1 64019U 25101AB  26193.51207131  .00010822  00000+0  40228-3 0  9991
2 64019  43.0009  13.1563 0001981 256.0280 104.0351 15.27572934 66145
STARLINK-34141          
1 64020U 25101AC  26192.91972975  .00009505  00000+0  35444-3 0  9991
2 64020  43.0036  16.4466 0002791 262.7444  97.3091 15.27584296 66050
STARLINK-34062          
1 64021U 25101AD  26193.48636635  .00008513  00000+0  31841-3 0  9990
2 64021  43.0013  12.9638 0001042 166.2746 193.8134 15.27591026 66148
STARLINK-34051          
1 64022U 25102A   26193.34038004 -.00002657  00000+0 -21492-3 0  9999
2 64022  69.9996 160.1675 0004015 264.9680  95.1020 14.98338550 64626
STARLINK-34087          
1 64023U 25102B   26193.58335648 -.00041586  00000+0 -34974-2 0  9992
2 64023  69.9994 159.6521 0002609 267.1896 233.8513 14.98339171  5622
STARLINK-34184          
1 64024U 25102C   26192.32212317  .00001078  00000+0  98102-4 0  9996
2 64024  69.9999 162.6287 0003581 267.0323  93.0426 14.98335704 64368
STARLINK-34088          
1 64025U 25102D   26193.09838967  .00000403  00000+0  41556-4 0  9999
2 64025  70.0004 160.9217 0003002 264.9809  95.1008 14.98331308 64596
STARLINK-33992          
1 64026U 25102E   26193.37361379  .00000894  00000+0  82727-4 0  9998
2 64026  70.0000 160.2819 0003480 260.4408  99.6358 14.98331865 64719
STARLINK-33967          
1 64027U 25102F   26193.00642222  .00002927  00000+0  25285-3 0  9992
2 64027  69.9985 161.0039 0003425 266.5318  93.5449 14.98348522 64518
STARLINK-33953          
1 64028U 25102G   26193.31100028  .00000246  00000+0  28380-4 0  9992
2 64028  69.9998 160.0594 0003682 258.9534 101.1211 14.98339136 64725
STARLINK-33790          
1 64029U 25102H   26193.35291368  .00000014  00000+0  89159-5 0  9990
2 64029  70.0034 160.2044 0001805 330.0927  30.0128 14.98327487 64672
STARLINK-34030          
1 64030U 25102J   26193.36526445  .00000547  00000+0  53602-4 0  9994
2 64030  69.9999 160.2527 0003795 261.4910  98.5819 14.98334460 64637
STARLINK-34024          
1 64031U 25102K   26193.28182048  .00003634  00000+0  31203-3 0  9995
2 64031  70.0017 160.3605 0003132 263.8384  96.2419 14.98345904 64553
STARLINK-34019          
1 64032U 25102L   26193.31936098  .00002562  00000+0  22239-3 0  9990
2 64032  70.0005 160.0884 0003089 270.1404  89.9401 14.98341845 64631
STARLINK-33860          
1 64033U 25102M   26193.33185065  .00007998  00000+0  67661-3 0  9999
2 64033  70.0020 160.1324 0004123 262.7402  97.3288 14.98367506 64632
STARLINK-33946          
1 64034U 25102N   26193.33664755 -.00211612  00000+0 -18666-1 0  9999
2 64034  69.9973 160.1549 0011320 209.6650 150.3868 14.97434404 64677
STARLINK-34046          
1 64035U 25102P   26193.30283515  .00001839  00000+0  16186-3 0  9991
2 64035  69.9992 160.3148 0003848 262.2603  97.8119 14.98342576 64397
STARLINK-34085          
1 64036U 25102Q   26192.35568100  .00001886  00000+0  16581-3 0  9993
2 64036  70.0001 162.7417 0003552 265.7049  94.3704 14.98332776 64473
STARLINK-34008          
1 64037U 25102R   26193.34455361  .00002515  00000+0  21841-3 0  9993
2 64037  69.9999 160.1719 0003874 262.2745  97.7974 14.98343390 64634
STARLINK-34079          
1 64038U 25102S   26192.91462009  .00002371  00000+0  20640-3 0  9999
2 64038  70.0000 161.0820 0003873 263.3194  96.7525 14.98334750 64667
STARLINK-34089          
1 64039U 25102T   26193.30700771 -.00001480  00000+0 -11628-3 0  9993
2 64039  69.9996 160.4443 0003955 261.7412  98.3299 14.98331844 64611
STARLINK-34117          
1 64040U 25102U   26192.35985308  .00002430  00000+0  21134-3 0  9997
2 64040  70.0000 162.7567 0003470 262.9284  97.1480 14.98343281 64411
STARLINK-34111          
1 64041U 25102V   26193.34873001  .00002463  00000+0  21404-3 0  9990
2 64041  70.0008 160.1871 0003628 266.0809  93.9935 14.98341991 64407
STARLINK-34049          
1 64042U 25102W   26193.30269337  .00002963  00000+0  25602-3 0  9997
2 64042  70.0001 160.4336 0003790 265.1652  94.9074 14.98328064 64610
STARLINK-34096          
1 64043U 25102X   26192.35133557  .00001812  00000+0  15959-3 0  9992
2 64043  70.0010 162.7298 0004340 254.1530 105.9151 14.98345364 64361
