OBJECT_NAME,OBJECT_ID,EPOCH,MEAN_MOTION,ECCENTRICITY,INCLINATION,RA_OF_ASC_NODE,ARG_OF_PERICENTER,MEAN_ANOMALY,EPHEMERIS_TYPE,CLASSIFICATION_TYPE,NORAD_CAT_ID,ELEMENT_SET_NO,REV_AT_EPOCH,BSTAR,MEAN_MOTION_DOT,MEAN_MOTION_DDOT
STARLINK-34192,2025-101W,2026-07-12T12:43:17.002560,15.27583844,.00010853,43.0004,13.2986,264.2346,95.8382,0,U,64014,999,6614,.56823458E-3,.15409E-3,0
STARLINK-34093,2025-101X,2026-07-12T11:42:13.289184,15.27593781,.00003311,42.9983,12.9780,198.3382,161.7458,0,U,64015,999,6614,.33247937E-3,.8902E-4,0
STARLINK-34016,2025-101Y,2026-07-12T11:34:49.300320,15.27575875,.00017551,43.0041,12.9370,261.1841,98.8812,0,U,64016,999,6614,.46758271E-3,.12625E-3,0
STARLINK-34161,2025-101Z,2026-07-12T11:47:46.104576,15.27597608,.00001698,42.9992,13.0055,231.5729,128.5108,0,U,64017,999,6614,.36079803E-3,.9685E-4,0
STARLINK-34162,2025-101AA,2026-07-12T12:06:16.020576,15.27599065,.00013849,42.9984,13.0952,204.0618,156.0169,0,U,64018,999,6614,.66292006E-3,.18035E-3,0
STARLINK-34155,2025-101AB,2026-07-12T12:17:22.961184,15.27572934,.00019819,43.0009,13.1563,256.0280,104.0351,0,U,64019,999,6614,.40227537E-3,.10822E-3,0
STARLINK-34141,2025-101AC,2026-07-11T22:04:24.650400,15.27584296,.0002791,43.0036,16.4466,262.7444,97.3091,0,U,64020,999,6605,.35444E-3,.9505E-4,0
STARLINK-34062,2025-101AD,2026-07-12T11:40:22.052640,15.27591026,.00010424,43.0013,12.9638,166.2746,193.8134,0,U,64021,999,6614,.31840613E-3,.8513E-4,0
STARLINK-34051,2025-102A,2026-07-12T08:10:08.835456,14.98338550,.00040152,69.9996,160.1675,264.9680,95.1020,0,U,64022,999,6462,-.21492422E-3,-.2657E-4,0
STARLINK-34087,2025-102B,2026-07-12T14:00:01.999872,14.98339171,.00026097,69.9994,159.6521,267.1896,233.8513,0,U,64023,999,562,-.34974004E-2,-.41586E-3,0
STARLINK-34184,2025-102C,2026-07-11T07:43:51.441888,14.98335704,.0003581,69.9999,162.6287,267.0323,93.0426,0,U,64024,999,6436,.98102399E-4,.1078E-4,0
STARLINK-34088,2025-102D,2026-07-12T02:21:40.867488,14.98331308,.00030021,70.0004,160.9217,264.9809,95.1008,0,U,64025,999,6459,.41556281E-4,.403E-5,0
STARLINK-33992,2025-102E,2026-07-12T08:58:00.231456,14.98331865,.00034802,70.0000,160.2819,260.4408,99.6358,0,U,64026,999,6471,.82726885E-4,.894E-5,0
STARLINK-33967,2025-102F,2026-07-12T00:09:14.879808,14.98348522,.00034251,69.9985,161.0039,266.5318,93.5449,0,U,64027,999,6451,.2528463E-3,.2927E-4,0
STARLINK-33953,2025-102G,2026-07-12T07:27:50.424192,14.98339136,.00036824,69.9998,160.0594,258.9534,101.1211,0,U,64028,999,6472,.28380199E-4,.246E-5,0
STARLINK-33790,2025-102H,2026-07-12T08:28:11.741952,14.98327487,.00018054,70.0034,160.2044,330.0927,30.0128,0,U,64029,999,6467,.8915935E-5,.14E-6,0
STARLINK-34030,2025-102J,2026-07-12T08:45:58.848480,14.98334460,.00037959,69.9999,160.2527,261.4910,98.5819,0,U,64030,999,6463,.53601816E-4,.547E-5,0
STARLINK-34024,2025-102K,2026-07-12T06:45:49.289472,14.98345904,.00031322,70.0017,160.3605,263.8384,96.2419,0,U,64031,999,6455,.31203251E-3,.3634E-4,0
STARLINK-34019,2025-102L,2026-07-12T07:39:52.788672,14.98341845,.00030896,70.0005,160.0884,270.1404,89.9401,0,U,64032,999,6463,.22238626E-3,.2562E-4,0
STARLINK-33860,2025-102M,2026-07-12T07:57:51.896160,14.98367506,.00041236,70.0020,160.1324,262.7402,97.3288,0,U,64033,999,6463,.67661336E-3,.7998E-4,0
STARLINK-33946,2025-102N,2026-07-12T08:04:46.348320,14.97434404,.00113206,69.9973,160.1549,209.6650,150.3868,0,U,64034,999,6467,-.1866595E-1,-.211612E-2,0
STARLINK-34046,2025-102P,2026-07-12T07:16:04.956960,14.98342576,.0003848,69.9992,160.3148,262.2603,97.8119,0,U,64035,999,6439,.16185863E-3,.1839E-4,0
STARLINK-34085,2025-102Q,2026-07-11T08:32:10.838400,14.98332776,.00035521,70.0001,162.7417,265.7049,94.3704,0,U,64036,999,6447,.16581101E-3,.1886E-4,0
STARLINK-34008,2025-102R,2026-07-12T08:16:09.431904,14.98343390,.00038742,69.9999,160.1719,262.2745,97.7974,0,U,64037,999,6463,.21841113E-3,.2515E-4,0
STARLINK-34079,2025-102S,2026-07-11T21:57:03.175776,14.98334750,.00038732,70.0000,161.0820,263.3194,96.7525,0,U,64038,999,6466,.20639503E-3,.2371E-4,0
STARLINK-34089,2025-102T,2026-07-12T07:22:05.466144,14.98331844,.00039554,69.9996,160.4443,261.7412,98.3299,0,U,64039,999,6461,-.11627956E-3,-.148E-4,0
STARLINK-34117,2025-102U,2026-07-11T08:38:11.306112,14.98343281,.00034702,70.0000,162.7567,262.9284,97.1480,0,U,64040,999,6441,.21133776E-3,.243E-4,0
STARLINK-34111,2025-102V,2026-07-12T08:22:10.272864,14.98341991,.00036284,70.0008,160.1871,266.0809,93.9935,0,U,64041,999,6440,.21404438E-3,.2463E-4,0
STARLINK-34049,2025-102W,2026-07-12T07:15:52.707168,14.98328064,.00037903,70.0001,160.4336,265.1652,94.9074,0,U,64042,999,6461,.25601857E-3,.2963E-4,0
STARLINK-34096,2025-102X,2026-07-11T08:25:55.393248,14.98345364,.00043408,70.0010,162.7298,254.1530,105.9151,0,U,64043,999,6436,.1595866E-3,.1812E-4,0
